NORAD_CAT_ID,OBJECT_NAME,OBJECT_TYPE,EPOCH,MEAN_MOTION,ECCENTRICITY,INCLINATION,RA_OF_ASC_NODE,ARG_OF_PERICENTER,MEAN_ANOMALY,BSTAR,MEAN_MOTION_DOT,MEAN_MOTION_DDOT,TLE_LINE0,TLE_LINE1,TLE_LINE2,SEMIMAJOR_AXIS,PERIOD,APOGEE,PERIGEE,DECAYED
55290.0,STARLINK-5266,PAYLOAD,2023-06-30 21:14:37,14.98334143,0.0003109,69.9991,342.4911,266.799,93.2814,4.6289e-05,4.59e-06,0.0,0 STARLINK-5266,1 55290U 23010X   23181.88515050  .00000459  00000-0  46289-4 0  9995,2 55290  69.9991 342.4911 0003109 266.7990  93.2814 14.98334143 25758,6950.18,96.107,574.206,569.884,0.0
55290.0,STARLINK-5266,PAYLOAD,2023-07-01 03:39:09,14.98328329,0.0003069,69.9993,341.818,266.4889,93.5919,-2.3829e-05,-3.77e-06,0.0,0 STARLINK-5266,1 55290U 23010X   23182.15219569 -.00000377  00000-0 -23829-4 0  9998,2 55290  69.9993 341.8180 0003069 266.4889  93.5919 14.98328329 25792,6950.198,96.107,574.196,569.93,0.0
55290.0,STARLINK-5266,PAYLOAD,2023-07-02 03:41:10,14.98329578,0.0003078,69.9994,339.2925,270.1153,89.9653,-2.7241e-05,-4.18e-06,0.0,0 STARLINK-5266,1 55290U 23010X   23183.15359605 -.00000418  00000-0 -27241-4 0  9993,2 55290  69.9994 339.2925 0003078 270.1153  89.9653 14.98329578 25945,6950.194,96.107,574.198,569.92,0.0
55290.0,STARLINK-5266,PAYLOAD,2023-07-03 11:43:51,14.98326319,0.0003174,69.9992,335.9258,270.6904,89.3891,3.4267e-05,3.16e-06,0.0,0 STARLINK-5266,1 55290U 23010X   23184.48879457  .00000316  00000-0  34267-4 0  9993,2 55290  69.9992 335.9258 0003174 270.6904  89.3891 14.98326319 26142,6950.204,96.107,574.275,569.863,0.0
55290.0,STARLINK-5266,PAYLOAD,2023-07-04 11:45:52,14.98329597,0.0003162,69.9992,333.4008,270.5864,89.4932,-3.1895e-05,-4.74e-06,0.0,0 STARLINK-5266,1 55290U 23010X   23185.49019468 -.00000474  00000-0 -31895-4 0  9994,2 55290  69.9992 333.4008 0003162 270.5864  89.4932 14.98329597 26293,6950.194,96.107,574.257,569.861,0.0
55290.0,STARLINK-5266,PAYLOAD,2023-07-05 16:36:17,14.98329333,0.000307,69.9995,330.3709,269.0472,91.0335,8.4366e-06,8e-08,0.0,0 STARLINK-5266,1 55290U 23010X   23186.69187287  .00000008  00000-0  84366-5 0  9995,2 55290  69.9995 330.3709 0003070 269.0472  91.0335 14.98329333 26470,6950.195,96.107,574.194,569.926,0.0
55290.0,STARLINK-5266,PAYLOAD,2023-07-07 02:15:06,14.98332399,0.0003147,69.9995,326.8363,267.9762,92.1037,2.2833e-05,1.79e-06,0.0,0 STARLINK-5266,1 55290U 23010X   23188.09382838  .00000179  00000-0  22833-4 0  9999,2 55290  69.9995 326.8363 0003147 267.9762  92.1037 14.98332399 26680,6950.185,96.107,574.238,569.863,0.0
55290.0,STARLINK-5266,PAYLOAD,2023-07-08 18:18:28,14.98327318,0.0003118,69.9996,322.628,268.1134,91.9668,-3.9663e-05,-5.66e-06,0.0,0 STARLINK-5266,1 55290U 23010X   23189.76283191 -.00000566  00000-0 -39663-4 0  9997,2 55290  69.9996 322.6280 0003118 268.1134  91.9668 14.98327318 26937,6950.201,96.107,574.233,569.899,0.0
55290.0,STARLINK-5266,PAYLOAD,2023-07-09 18:20:29,14.98324002,0.0003225,69.9994,320.1021,268.6739,91.4051,-2.9256e-05,-4.42e-06,0.0,0 STARLINK-5266,1 55290U 23010X   23190.76423524 -.00000442  00000-0 -29256-4 0  9995,2 55290  69.9994 320.1021 0003225 268.6739  91.4051 14.98324002 27081,6950.211,96.107,574.318,569.835,0.0
55290.0,STARLINK-5266,PAYLOAD,2023-07-10 10:21:49,14.98331302,0.0003358,69.9992,318.4183,269.5692,90.5083,7.4837e-05,8e-06,0.0,0 STARLINK-5266,1 55290U 23010X   23191.43182788  .00000800  00000-0  74837-4 0  9995,2 55290  69.9992 318.4183 0003358 269.5692  90.5083 14.98331302 27180,6950.189,96.107,574.388,569.72,0.0
55290.0,STARLINK-5266,PAYLOAD,2023-07-11 10:23:51,14.98326973,0.0003217,69.9998,315.8936,270.2575,89.8215,6.1968e-05,6.46e-06,0.0,0 STARLINK-5266,1 55290U 23010X   23192.43323005  .00000646  00000-0  61968-4 0  9994,2 55290  69.9998 315.8936 0003217 270.2575  89.8215 14.98326973 27339,6950.202,96.107,574.303,569.831,0.0
55290.0,STARLINK-5266,PAYLOAD,2023-07-12 18:26:32,14.98334009,0.0003086,70.0001,312.5281,268.6779,91.4027,-3.9269e-05,-5.62e-06,0.0,0 STARLINK-5266,1 55290U 23010X   23193.76842667 -.00000562  00000-0 -39269-4 0  9999,2 55290  70.0001 312.5281 0003086 268.6779  91.4027 14.98334009 27536,6950.18,96.107,574.19,569.901,0.0
55290.0,STARLINK-5266,PAYLOAD,2023-07-13 16:52:25,14.98327231,0.0003119,70.0,310.1712,268.1364,91.9438,-2.8876e-05,-4.38e-06,0.0,0 STARLINK-5266,1 55290U 23010X   23194.70307016 -.00000438  00000-0 -28876-4 0  9992,2 55290  70.0000 310.1712 0003119 268.1364  91.9438 14.98327231 27675,6950.201,96.107,574.234,569.899,0.0
55290.0,STARLINK-5266,PAYLOAD,2023-07-14 16:54:26,14.98244718,0.0002807,69.9996,307.647,264.125,95.9589,0.0014636,0.00017375,0.0,0 STARLINK-5266,1 55290U 23010X   23195.70446957  .00017375  00000-0  14636-2 0  9994,2 55290  69.9996 307.6470 0002807 264.1250  95.9589 14.98244718 27827,6950.457,96.112,574.273,570.371,0.0
55290.0,STARLINK-5266,PAYLOAD,2023-07-15 12:08:03,14.98324303,0.0003344,69.9992,305.6252,272.5113,87.5663,1.0241e-07,-9.2e-07,0.0,0 STARLINK-5266,1 55290U 23010X   23196.50559138 -.00000092  00000-0  10241-6 0  9990,2 55290  69.9992 305.6252 0003344 272.5113  87.5663 14.98324303 27949,6950.211,96.107,574.4,569.751,0.0
55290.0,STARLINK-5266,PAYLOAD,2023-07-16 16:58:28,14.98331486,0.0003359,69.9989,302.5953,267.9997,92.0778,-8.6395e-06,-1.96e-06,0.0,0 STARLINK-5266,1 55290U 23010X   23197.70726878 -.00000196  00000-0 -86395-5 0  9998,2 55290  69.9989 302.5953 0003359 267.9997  92.0778 14.98331486 28122,6950.188,96.107,574.388,569.719,0.0
55290.0,STARLINK-5266,PAYLOAD,2023-07-17 17:00:28,14.98337523,0.0003384,69.9989,300.0705,268.8905,91.1866,0.0001136,1.263e-05,0.0,0 STARLINK-5266,1 55290U 23010X   23198.70866051  .00001263  00000-0  11360-3 0  9999,2 55290  69.9989 300.0705 0003384 268.8905  91.1866 14.98337523 28279,6950.17,96.107,574.387,569.683,0.0
55290.0,STARLINK-5266,PAYLOAD,2023-07-18 10:37:57,14.98330224,0.0003316,69.9991,298.219,268.7563,91.3217,3.178e-05,2.86e-06,0.0,0 STARLINK-5266,1 55290U 23010X   23199.44302614  .00000286  00000-0  31780-4 0  9994,2 55290  69.9991 298.2190 0003316 268.7563  91.3217 14.98330224 28387,6950.192,96.107,574.362,569.753,0.0
55290.0,STARLINK-5266,PAYLOAD,2023-07-18 17:02:29,14.98337207,0.0003279,69.9991,297.5458,268.2207,91.8577,8.8396e-05,9.62e-06,0.0,0 STARLINK-5266,1 55290U 23010X   23199.71005921  .00000962  00000-0  88396-4 0  9991,2 55290  69.9991 297.5458 0003279 268.2207  91.8577 14.98337207 28421,6950.171,96.107,574.315,569.757,0.0
55290.0,STARLINK-5266,PAYLOAD,2023-07-19 09:03:51,14.9832257,0.0002907,70.0005,295.8642,263.9737,96.1091,-0.00010573,-1.354e-05,0.0,0 STARLINK-5266,1 55290U 23010X   23200.37767390 -.00001354  00000-0 -10573-3 0  9990,2 55290  70.0005 295.8642 0002907 263.9737  96.1091 14.98322570 28520,6950.216,96.107,574.101,570.06,0.0
55290.0,STARLINK-5266,PAYLOAD,2023-07-20 10:41:59,14.98334976,0.0003021,69.9998,293.1697,264.6051,95.4763,6.9946e-06,-1e-07,0.0,0 STARLINK-5266,1 55290U 23010X   23201.44582375 -.00000010  00000-0  69946-5 0  9994,2 55290  69.9998 293.1697 0003021 264.6051  95.4763 14.98334976 28682,6950.178,96.107,574.142,569.943,0.0
55290.0,STARLINK-5266,PAYLOAD,2023-07-21 05:55:36,14.98325614,0.000323,69.9993,291.1493,268.8477,91.2312,0.00010337,1.14e-05,0.0,0 STARLINK-5266,1 55290U 23010X   23202.24694572  .00001140  00000-0  10337-3 0  9998,2 55290  69.9993 291.1493 0003230 268.8477  91.2312 14.98325614 28806,6950.206,96.107,574.316,569.827,0.0
55290.0,STARLINK-5266,PAYLOAD,2023-07-24 04:25:30,14.98331184,0.0003324,69.9987,283.744,269.5283,90.5495,3.9011e-05,3.72e-06,0.0,0 STARLINK-5266,1 55290U 23010X   23205.18438292  .00000372  00000-0  39011-4 0  9996,2 55290  69.9987 283.7440 0003324 269.5283  90.5495 14.98331184 29540,6950.189,96.107,574.364,569.744,0.0
55290.0,STARLINK-5266,PAYLOAD,2023-07-25 12:28:12,14.98326725,0.0003497,69.9989,280.3763,271.4431,88.6328,-4.8423e-05,-6.71e-06,0.0,0 STARLINK-5266,1 55290U 23010X   23206.51958694 -.00000671  00000-0 -48423-4 0  9998,2 55290  69.9989 280.3763 0003497 271.4431  88.6328 14.98326725 29741,6950.203,96.107,574.499,569.638,0.0
55290.0,STARLINK-5266,PAYLOAD,2023-07-26 07:41:48,14.98333414,0.0003575,69.9986,278.3563,272.1561,87.9189,-2.4051e-05,-3.8e-06,0.0,0 STARLINK-5266,1 55290U 23010X   23207.32070144 -.00000380  00000-0 -24051-4 0  9991,2 55290  69.9986 278.3563 0003575 272.1561  87.9189 14.98333414 29865,6950.182,96.107,574.532,569.563,0.0
55290.0,STARLINK-5266,PAYLOAD,2023-07-26 22:07:00,14.98332314,0.0003605,69.9984,276.8408,272.8164,87.2582,9.722e-05,1.067e-05,0.0,0 STARLINK-5266,1 55290U 23010X   23207.92153646  .00001067  00000-0  97220-4 0  9995,2 55290  69.9984 276.8408 0003605 272.8164  87.2582 14.98332314 29952,6950.186,96.107,574.556,569.545,0.0
55290.0,STARLINK-5266,PAYLOAD,2023-07-27 14:08:22,14.98326164,0.0003576,69.9985,275.1574,272.402,87.6729,-4.0607e-05,-5.78e-06,0.0,0 STARLINK-5266,1 55290U 23010X   23208.58914518 -.00000578  00000-0 -40607-4 0  9996,2 55290  69.9985 275.1574 0003576 272.4020  87.6729 14.98326164 30059,6950.205,96.107,574.555,569.584,0.0
55290.0,STARLINK-5266,PAYLOAD,2023-07-28 07:45:51,14.98324291,0.0003445,69.9986,273.3053,266.1971,93.8794,-2.5859e-05,-4.02e-06,0.0,0 STARLINK-5266,1 55290U 23010X   23209.32350696 -.00000402  00000-0 -25859-4 0  9998,2 55290  69.9986 273.3053 0003445 266.1971  93.8794 14.98324291 30164,6950.211,96.107,574.47,569.681,0.0
55290.0,STARLINK-5266,PAYLOAD,2023-07-28 14:10:22,14.98329848,0.0003581,69.9983,272.6321,270.37,89.7049,-1.7881e-05,-3.06e-06,0.0,0 STARLINK-5266,1 55290U 23010X   23209.59054365 -.00000306  00000-0 -17881-4 0  9990,2 55290  69.9983 272.6321 0003581 270.3700  89.7049 14.98329848 29909,6950.193,96.107,574.547,569.569,0.0
55290.0,STARLINK-5266,PAYLOAD,2023-07-30 03:01:28,14.98326498,0.0003566,69.9982,268.7606,269.7057,90.3694,2.6618e-05,2.24e-06,0.0,0 STARLINK-5266,1 55290U 23010X   23211.12602326  .00000224  00000-0  26618-4 0  9993,2 55290  69.9982 268.7606 0003566 269.7057  90.3694 14.98326498 30139,6950.204,96.107,574.547,569.59,0.0
